%  GPST          latitude(deg) longitude(deg)  height(m)   Q  ns   sdn(m)   sde(m)   sdu(m)  sdne(m)  sdeu(m)  sdun(m) age(s)  ratio
2137 425280.000   40.097017376 -105.147247840  1578.5228   2   0   1.2962    1.3039   2.7386  -0.1453   0.9514  -0.6157   0.01    0.0
2137 425284.000   40.097017323 -105.147247629  1578.1756   2   0   1.2716    1.3138   2.7624  -0.2141   1.0651  -0.5523   0.00    0.0
2137 425285.005   40.097017084 -105.147247454  1578.2474   2   0   0.8946    0.8029   1.8001  -0.2663   0.3119  -0.4286   0.00    0.0
2137 425286.005   40.097016723 -105.147247500  1578.2155   2   0   0.7535    0.6919   1.5239  -0.1891   0.3409  -0.3485   0.00    0.0
2137 425287.005   40.097016307 -105.147247747  1578.1983   2   0   0.6631    0.6179   1.3454  -0.1448   0.3350  -0.2993   0.00    0.0
2137 425288.005   40.097016051 -105.147248132  1578.2005   2   0   0.5985    0.5637   1.2171  -0.1164   0.3218  -0.2658   0.01    0.0
2137 425289.005   40.097016012 -105.147248331  1578.2254   2   0   0.5493    0.5217   1.1188  -0.0968   0.3076  -0.2417   0.01    0.0
2137 425290.005   40.097015935 -105.147248542  1578.1959   2   0   0.5101    0.4879   1.0401  -0.0828   0.2938  -0.2234   0.01    0.0
2137 425291.005   40.097016004 -105.147248539  1578.1824   2   0   0.4778    0.4599   0.9749  -0.0727   0.2811  -0.2092   0.01    0.0
2137 425292.005   40.097015885 -105.147248596  1578.1793   2   0   0.4505    0.4362   0.9197  -0.0652   0.2694  -0.1978   0.01    0.0
2137 425293.005   40.097015856 -105.147248495  1578.2148   2   0   0.4270    0.4157   0.8719  -0.0598   0.2586  -0.1885   0.01    0.0
2137 425294.005   40.097015864 -105.147248460  1578.2235   2   0   0.4064    0.3978   0.8300  -0.0560   0.2487  -0.1809   0.01    0.0
2137 425295.005   40.097015962 -105.147248450  1578.2370   2   0   0.3882    0.3820   0.7928  -0.0533   0.2396  -0.1744   0.01    0.0
2137 425296.005   40.097016120 -105.147248291  1578.2557   2   0   0.3718    0.3661   0.7574  -0.0523   0.2352  -0.1686   0.00    0.0
2137 425297.005   40.097016165 -105.147248288  1578.2767   2   0   0.3570    0.3529   0.7262  -0.0516   0.2287  -0.1637   0.00    0.0
2137 425298.005   40.097016220 -105.147248379  1578.2880   2   0   0.3435    0.3410   0.6979  -0.0513   0.2224  -0.1594   0.00    0.0
2137 425299.005   40.097016363 -105.147248422  1578.3257   2   0   0.3311    0.3302   0.6719  -0.0513   0.2163  -0.1557   0.00    0.0
2137 425300.005   40.097016379 -105.147248512  1578.3408   2   0   0.3197    0.3203   0.6479  -0.0515   0.2105  -0.1524   0.00    0.0
2137 425301.005   40.097016497 -105.147248612  1578.3788   2   0   0.3090    0.3112   0.6256  -0.0519   0.2048  -0.1494   0.00    0.0
2137 425302.005   40.097016557 -105.147248800  1578.3817   2   0   0.2991    0.3028   0.6049  -0.0523   0.1995  -0.1468   0.00    0.0
2137 425303.005   40.097016733 -105.147248960  1578.3847   2   0   0.2898    0.2950   0.5854  -0.0528   0.1943  -0.1443   0.00    0.0
2137 425304.005   40.097016919 -105.147249056  1578.3944   2   0   0.2811    0.2877   0.5672  -0.0534   0.1893  -0.1421   0.00    0.0
2137 425305.005   40.097017021 -105.147249135  1578.3952   2   0   0.2729    0.2809   0.5500  -0.0539   0.1846  -0.1400   0.00    0.0
2137 425306.005   40.097017153 -105.147249226  1578.3862   2   0   0.2651    0.2745   0.5337  -0.0545   0.1800  -0.1380   0.00    0.0
2137 425307.005   40.097017304 -105.147249313  1578.3857   2   0   0.2578    0.2685   0.5183  -0.0550   0.1756  -0.1362   0.00    0.0
2137 425308.005   40.097017491 -105.147249361  1578.3742   2   0   0.2508    0.2629   0.5037  -0.0555   0.1714  -0.1344   0.00    0.0
2137 425309.005   40.097017669 -105.147249422  1578.3868   2   0   0.2441    0.2575   0.4897  -0.0560   0.1674  -0.1327   0.00    0.0
2137 425310.005   40.097017769 -105.147249539  1578.3750   2   0   0.2377    0.2524   0.4765  -0.0565   0.1635  -0.1310   0.00    0.0
2137 425311.005   40.097017873 -105.147249612  1578.3626   2   0   0.2317    0.2476   0.4638  -0.0569   0.1598  -0.1294   0.00    0.0
2137 425312.005   40.097017976 -105.147249678  1578.3551   2   0   0.2259    0.2431   0.4516  -0.0573   0.1562  -0.1278   0.01    0.0
2137 425313.005   40.097023882 -105.147249860  1578.1217   1   0   0.0047    0.0045   0.0095   0.0005   0.0035  -0.0016   0.01    3.8
2137 425314.005   40.097023879 -105.147249845  1578.1215   1   0   0.0047    0.0045   0.0095   0.0005   0.0035  -0.0016   0.01    3.8
2137 425315.005   40.097023883 -105.147249840  1578.1231   1   0   0.0047    0.0045   0.0095   0.0005   0.0035  -0.0016   0.01    3.9
2137 425316.005   40.097023882 -105.147249848  1578.1232   1   0   0.0047    0.0045   0.0095   0.0005   0.0035  -0.0016   0.01    3.9
2137 425317.005   40.097023886 -105.147249852  1578.1233   1   0   0.0047    0.0045   0.0095   0.0005   0.0035  -0.0016   0.01    3.9
2137 425318.005   40.097023882 -105.147249851  1578.1219   1   0   0.0047    0.0045   0.0095   0.0005   0.0035  -0.0016   0.01    3.9
2137 425319.005   40.097023895 -105.147249854  1578.1254   1   0   0.0047    0.0045   0.0095   0.0005   0.0035  -0.0016   0.01    4.0
2137 425320.005   40.097023894 -105.147249858  1578.1235   1   0   0.0047    0.0045   0.0095   0.0005   0.0035  -0.0016   0.01    4.0
2137 425321.005   40.097023888 -105.147249865  1578.1245   1   0   0.0047    0.0045   0.0095   0.0005   0.0035  -0.0016   0.01    4.0
2137 425322.005   40.097023896 -105.147249855  1578.1244   1   0   0.0047    0.0045   0.0095   0.0005   0.0035  -0.0016   0.01    4.0
2137 425323.005   40.097023893 -105.147249855  1578.1240   1   0   0.0047    0.0045   0.0095   0.0005   0.0035  -0.0016   0.01    4.0
2137 425324.005   40.097023901 -105.147249863  1578.1267   1   0   0.0047    0.0045   0.0095   0.0005   0.0035  -0.0016   0.01    4.0
2137 425325.005   40.097023903 -105.147249848  1578.1266   1   0   0.0047    0.0045   0.0095   0.0005   0.0035  -0.0016   0.01    4.0
2137 425326.005   40.097023908 -105.147249856  1578.1288   1   0   0.0047    0.0045   0.0095   0.0005   0.0035  -0.0016   0.01    4.0
2137 425327.005   40.097023904 -105.147249860  1578.1284   1   0   0.0047    0.0045   0.0095   0.0005   0.0035  -0.0016   0.01    4.1
2137 425328.005   40.097023903 -105.147249851  1578.1265   1   0   0.0047    0.0045   0.0095   0.0005   0.0035  -0.0016   0.01    4.1
2137 425329.005   40.097023909 -105.147249860  1578.1272   1   0   0.0047    0.0045   0.0095   0.0005   0.0035  -0.0016   0.01    4.1
